NORAD_CAT_ID,OBJECT_NAME,OBJECT_TYPE,EPOCH,MEAN_MOTION,ECCENTRICITY,INCLINATION,RA_OF_ASC_NODE,ARG_OF_PERICENTER,MEAN_ANOMALY,BSTAR,MEAN_MOTION_DOT,MEAN_MOTION_DDOT,TLE_LINE0,TLE_LINE1,TLE_LINE2,SEMIMAJOR_AXIS,PERIOD,APOGEE,PERIGEE,DECAYED
50172.0,STARLINK-3287,PAYLOAD,2023-08-06 02:59:37,15.08844308,0.000131,53.2164,178.4129,105.6478,254.4659,3.6001e-05,2.85e-06,0.0,0 STARLINK-3287,1 50172U 21125S   23218.12473914  .00000285  00000-0  36001-4 0  9992,2 50172  53.2164 178.4129 0001310 105.6478 254.4659 15.08844308 93217,6917.867,95.437,540.638,538.826,0.0
50172.0,STARLINK-3287,PAYLOAD,2023-08-06 20:28:54,15.08796495,0.0001245,53.2179,175.1461,112.2068,247.9056,0.00044372,6.773e-05,0.0,0 STARLINK-3287,1 50172U 21125S   23218.85340311  .00006773  00000-0  44372-3 0  9993,2 50172  53.2179 175.1461 0001245 112.2068 247.9056 15.08796495 93325,6918.013,95.44,540.74,539.017,0.0
50172.0,STARLINK-3287,PAYLOAD,2023-08-07 02:50:25,15.08831745,0.0001413,53.2182,173.9559,106.5381,253.5767,-5.8798e-05,-1.223e-05,0.0,0 STARLINK-3287,1 50172U 21125S   23219.11835382 -.00001223  00000-0 -58798-4 0  9995,2 50172  53.2182 173.9559 0001413 106.5381 253.5767 15.08831745 93368,6917.906,95.438,540.748,538.793,0.0
50172.0,STARLINK-3287,PAYLOAD,2023-08-07 13:58:07,15.08838171,0.0001432,53.2186,171.8742,98.8804,261.2351,-2.6981e-06,-3.31e-06,0.0,0 STARLINK-3287,1 50172U 21125S   23219.58202984 -.00000331  00000-0 -26981-5 0  9991,2 50172  53.2186 171.8742 0001432  98.8804 261.2351 15.08838171 93430,6917.886,95.438,540.742,538.76,0.0
50172.0,STARLINK-3287,PAYLOAD,2023-08-08 07:27:20,15.08854492,0.0001475,53.2172,168.6014,128.8705,231.2419,0.00010621,1.403e-05,0.0,0 STARLINK-3287,1 50172U 21125S   23220.31065334  .00001403  00000-0  10621-3 0  9991,2 50172  53.2172 168.6014 0001475 128.8705 231.2419 15.08854492 93540,6917.836,95.437,540.721,538.681,0.0
50172.0,STARLINK-3287,PAYLOAD,2023-08-08 13:48:53,15.08843494,0.0001284,53.2178,167.4097,89.4432,270.6707,3.475e-05,2.65e-06,0.0,0 STARLINK-3287,1 50172U 21125S   23220.57562332  .00000265  00000-0  34750-4 0  9994,2 50172  53.2178 167.4097 0001284  89.4432 270.6707 15.08843494 93582,6917.87,95.437,540.623,538.846,0.0
50172.0,STARLINK-3287,PAYLOAD,2023-08-08 20:10:26,15.08833147,0.0001324,53.2168,166.2239,91.9826,268.1318,0.0001378,1.905e-05,0.0,0 STARLINK-3287,1 50172U 21125S   23220.84058826  .00001905  00000-0  13780-3 0  9993,2 50172  53.2168 166.2239 0001324  91.9826 268.1318 15.08833147 93625,6917.901,95.438,540.682,538.85,0.0
50172.0,STARLINK-3287,PAYLOAD,2023-08-09 23:12:00,15.08838581,0.0001099,53.2169,161.1696,91.1684,268.9434,-2.9169e-05,-7.52e-06,0.0,0 STARLINK-3287,1 50172U 21125S   23221.96667157 -.00000752  00000-0 -29169-4 0  9990,2 50172  53.2169 161.1696 0001099  91.1684 268.9434 15.08838581 93792,6917.885,95.438,540.51,538.989,0.0
50172.0,STARLINK-3287,PAYLOAD,2023-08-11 02:13:33,15.08834247,9.97e-05,53.2174,156.1104,100.3985,259.7119,0.00014464,2.015e-05,0.0,0 STARLINK-3287,1 50172U 21125S   23223.09274836  .00002015  00000-0  14464-3 0  9997,2 50172  53.2174 156.1104 0000997 100.3985 259.7119 15.08834247 93961,6917.898,95.438,540.453,539.073,0.0
50172.0,STARLINK-3287,PAYLOAD,2023-08-12 05:15:06,15.08842428,0.0001333,53.2177,151.0563,90.9023,269.2122,6.6714e-05,7.74e-06,0.0,0 STARLINK-3287,1 50172U 21125S   23224.21882783  .00000774  00000-0  66714-4 0  9994,2 50172  53.2177 151.0563 0001333  90.9023 269.2122 15.08842428 94139,6917.873,95.437,540.66,538.816,0.0
50172.0,STARLINK-3287,PAYLOAD,2023-08-14 01:45:55,15.08836522,0.0001528,53.2181,142.735,100.8641,259.2523,-1.7478e-05,-5.66e-06,0.0,0 STARLINK-3287,1 50172U 21125S   23226.07355630 -.00000566  00000-0 -17478-4 0  9990,2 50172  53.2181 142.7350 0001528 100.8641 259.2523 15.08836522 94411,6917.891,95.438,540.813,538.699,0.0
50172.0,STARLINK-3287,PAYLOAD,2023-08-15 00:01:19,15.0882037,0.0001742,53.218,138.5695,101.0091,259.1098,0.00022689,3.323e-05,0.0,0 STARLINK-3287,1 50172U 21125S   23227.00091860  .00003323  00000-0  22689-3 0  9997,2 50172  53.2180 138.5695 0001742 101.0091 259.1098 15.08820370 94550,6917.94,95.439,541.01,538.6,0.0
50172.0,STARLINK-3287,PAYLOAD,2023-08-15 17:30:33,15.08839739,0.0001561,53.2178,135.2985,93.7327,266.3844,5.123e-05,5.27e-06,0.0,0 STARLINK-3287,1 50172U 21125S   23227.72955526  .00000527  00000-0  51230-4 0  9992,2 50172  53.2178 135.2985 0001561  93.7327 266.3844 15.08839739 94661,6917.881,95.438,540.826,538.666,0.0
50172.0,STARLINK-3287,PAYLOAD,2023-08-16 03:02:51,15.08848891,0.0001507,53.2175,133.514,90.3108,269.8057,0.00011191,1.494e-05,0.0,0 STARLINK-3287,1 50172U 21125S   23228.12698738  .00001494  00000-0  11191-3 0  9991,2 50172  53.2175 133.5140 0001507  90.3108 269.8057 15.08848891 94722,6917.853,95.437,540.761,538.676,0.0
50172.0,STARLINK-3287,PAYLOAD,2023-08-16 17:21:20,15.08840719,0.0001812,53.218,130.8396,81.3071,278.8126,4.2697e-05,3.91e-06,0.0,0 STARLINK-3287,1 50172U 21125S   23228.72315629  .00000391  00000-0  42697-4 0  9993,2 50172  53.2180 130.8396 0001812  81.3071 278.8126 15.08840719 94817,6917.878,95.438,540.997,538.49,0.0
50172.0,STARLINK-3287,PAYLOAD,2023-08-17 02:53:39,15.08846138,0.0001615,53.2177,129.0543,88.4214,271.6963,9.1493e-05,1.169e-05,0.0,0 STARLINK-3287,1 50172U 21125S   23229.12059035  .00001169  00000-0  91493-4 0  9996,2 50172  53.2177 129.0543 0001615  88.4214 271.6963 15.08846138 94872,6917.862,95.437,540.844,538.609,0.0
50172.0,STARLINK-3287,PAYLOAD,2023-08-19 02:35:13,15.08839818,0.000144,53.2176,120.1317,89.2808,270.835,-1.2675e-05,-4.9e-06,0.0,0 STARLINK-3287,1 50172U 21125S   23231.10779650 -.00000490  00000-0 -12675-4 0  9992,2 50172  53.2176 120.1317 0001440  89.2808 270.8350 15.08839818 95178,6917.881,95.438,540.742,538.75,0.0
50172.0,STARLINK-3287,PAYLOAD,2023-08-21 00:41:24,15.08846755,0.0001331,53.2173,111.5095,91.1287,268.9857,0.00016043,2.267e-05,0.0,0 STARLINK-3287,1 50172U 21125S   23233.02875434  .00002267  00000-0  16043-3 0  9996,2 50172  53.2173 111.5095 0001331  91.1287 268.9857 15.08846755 95464,6917.86,95.437,540.646,538.804,0.0
50172.0,STARLINK-3287,PAYLOAD,2023-08-21 19:46:02,15.08836604,0.000134,53.2171,107.9404,106.8452,253.2687,4.3936e-05,4.11e-06,0.0,0 STARLINK-3287,1 50172U 21125S   23233.82364425  .00000411  00000-0  43936-4 0  9998,2 50172  53.2171 107.9404 0001340 106.8452 253.2687 15.08836604 95586,6917.891,95.438,540.683,538.829,0.0
50172.0,STARLINK-3287,PAYLOAD,2023-08-23 00:22:59,15.08841851,0.0001209,53.217,102.5877,89.1713,270.9418,-2.5223e-05,-6.89e-06,0.0,0 STARLINK-3287,1 50172U 21125S   23235.01596592 -.00000689  00000-0 -25223-4 0  9991,2 50172  53.2170 102.5877 0001209  89.1713 270.9418 15.08841851 95765,6917.875,95.437,540.576,538.903,0.0
50172.0,STARLINK-3287,PAYLOAD,2023-08-24 00:13:46,15.08844505,0.0001265,53.2175,98.127,84.3271,275.7866,0.00011741,1.581e-05,0.0,0 STARLINK-3287,1 50172U 21125S   23236.00956180  .00001581  00000-0  11741-3 0  9993,2 50172  53.2175  98.1270 0001265  84.3271 275.7866 15.08844505 96439,6917.867,95.437,540.607,538.857,0.0
50172.0,STARLINK-3287,PAYLOAD,2023-08-25 19:09:10,15.08844562,0.0001309,53.2174,90.098,79.3188,280.7951,3.1326e-05,2.11e-06,0.0,0 STARLINK-3287,1 50172U 21125S   23237.79804221  .00000211  00000-0  31326-4 0  9999,2 50172  53.2174  90.0980 0001309  79.3188 280.7951 15.08844562 96183,6917.866,95.437,540.637,538.826,0.0
50172.0,STARLINK-3287,PAYLOAD,2023-08-25 20:44:33,15.08845545,0.0001332,53.2172,89.8007,79.5753,280.5389,4.288e-05,3.95e-06,0.0,0 STARLINK-3287,1 50172U 21125S   23237.86428106  .00000395  00000-0  42880-4 0  9991,2 50172  53.2172  89.8007 0001332  79.5753 280.5389 15.08845545 96717,6917.863,95.437,540.65,538.807,0.0
50172.0,STARLINK-3287,PAYLOAD,2023-08-25 23:55:20,15.08846409,0.0001335,53.2172,89.2065,80.6348,279.4795,4.6417e-05,4.51e-06,0.0,0 STARLINK-3287,1 50172U 21125S   23237.99675982  .00000451  00000-0  46417-4 0  9994,2 50172  53.2172  89.2065 0001335  80.6348 279.4795 15.08846409 96731,6917.861,95.437,540.649,538.802,0.0
50172.0,STARLINK-3287,PAYLOAD,2023-08-26 18:59:57,15.08837307,0.0001565,53.2181,85.6349,103.4427,256.6739,5.8134e-05,6.37e-06,0.0,0 STARLINK-3287,1 50172U 21125S   23238.79164233  .00000637  00000-0  58134-4 0  9990,2 50172  53.2181  85.6349 0001565 103.4427 256.6739 15.08837307 96858,6917.889,95.438,540.836,538.671,0.0
50172.0,STARLINK-3287,PAYLOAD,2023-08-26 23:46:07,15.08837552,0.0001561,53.2181,84.743,103.0908,257.0258,5.6153e-05,6.06e-06,0.0,0 STARLINK-3287,1 50172U 21125S   23238.99036268  .00000606  00000-0  56153-4 0  9993,2 50172  53.2181  84.7430 0001561 103.0908 257.0258 15.08837552 96364,6917.888,95.438,540.833,538.673,0.0
50172.0,STARLINK-3287,PAYLOAD,2023-08-27 20:26:08,15.08838113,0.000153,53.2183,80.877,103.2156,256.9007,4.9391e-05,4.98e-06,0.0,0 STARLINK-3287,1 50172U 21125S   23239.85148415  .00000498  00000-0  49391-4 0  9992,2 50172  53.2183  80.8770 0001530 103.2156 256.9007 15.08838113 97010,6917.886,95.438,540.81,538.693,0.0
50172.0,STARLINK-3287,PAYLOAD,2023-08-28 05:58:27,15.08836212,0.0001463,53.2186,79.0941,89.5499,270.5661,2.0059e-05,3.1e-07,0.0,0 STARLINK-3287,1 50172U 21125S   23240.24892707  .00000031  00000-0  20059-4 0  9990,2 50172  53.2186  79.0941 0001463  89.5499 270.5661 15.08836212 96558,6917.892,95.438,540.769,538.745,0.0
50172.0,STARLINK-3287,PAYLOAD,2023-08-28 20:16:55,15.08834379,0.0001329,53.2173,76.4205,80.8734,279.2409,1.3408e-05,-7.5e-07,0.0,0 STARLINK-3287,1 50172U 21125S   23240.84509135 -.00000075  00000-0  13408-4 0  9995,2 50172  53.2173  76.4205 0001329  80.8734 279.2409 15.08834379 97161,6917.898,95.438,540.682,538.843,0.0
50172.0,STARLINK-3287,PAYLOAD,2023-08-29 16:56:56,15.08840208,0.0001387,53.2183,72.5546,99.2059,260.909,3.8223e-05,3.2e-06,0.0,0 STARLINK-3287,1 50172U 21125S   23241.70620948  .00000320  00000-0  38223-4 0  9991,2 50172  53.2183  72.5546 0001387  99.2059 260.9090 15.08840208 96772,6917.88,95.438,540.704,538.785,0.0
